[{"OBJECT_NAME":"239ALFEROV (RS61S)","OBJECT_ID":"2025-155F","EPOCH":"2026-03-09T21:46:33.382848","MEAN_MOTION":15.29933217,"ECCENTRICITY":0.00084878,"INCLINATION":97.4469,"RA_OF_ASC_NODE":37.6373,"ARG_OF_PERICENTER":151.5904,"MEAN_ANOMALY":208.58,"EPHEMERIS_TYPE":0,"CLASSIFICATION_TYPE":"U","NORAD_CAT_ID":64881,"ELEMENT_SET_NO":999,"REV_AT_EPOCH":6561,"BSTAR":0.00067233359,"MEAN_MOTION_DOT":0.00019457,"MEAN_MOTION_DDOT":0},{"OBJECT_NAME":"STARLINK-34759","OBJECT_ID":"2025-167U","EPOCH":"2026-03-09T06:16:19.705152","MEAN_MOTION":15.30188438,"ECCENTRICITY":0.00010963,"INCLINATION":53.1609,"RA_OF_ASC_NODE":28.6907,"ARG_OF_PERICENTER":80.5699,"MEAN_ANOMALY":279.5426,"EPHEMERIS_TYPE":0,"CLASSIFICATION_TYPE":"U","NORAD_CAT_ID":65096,"ELEMENT_SET_NO":999,"REV_AT_EPOCH":3341,"BSTAR":0.00093481697,"MEAN_MOTION_DOT":0.0002742,"MEAN_MOTION_DDOT":0}]
